sat44837
1 44837U 19086B   20046.89407784  .00431413  24357-5  25004-3 0  9995
2 44837  97.4878 120.7167 0190958 255.2762 102.7280 15.90045263 11014
